IRIDIUM 7               
1 24793U 97020B   24117.56584793  .00000913  00000+0  31295-3 0  9990
2 24793  86.3991 351.4563 0002388  83.2324 276.9144 14.35177697412340
IRIDIUM 5               
1 24795U 97020D   24116.94839397  .00012828  00000+0  12402-2 0  9992
2 24795  86.3888 274.8668 0122849 187.0657 172.8843 14.87100915423335
IRIDIUM 4               
1 24796U 97020E   24117.18784760  .00000995  00000+0  33547-3 0  9999
2 24796  86.3983 348.7706 0002290  89.3056 270.8403 14.36099897412632
IRIDIUM 914             
1 24836U 97030A   24117.42712481  .00001154  00000+0  36079-3 0  9994
2 24836  86.3973 358.4920 0003287 117.2452 242.9082 14.39950724409233
IRIDIUM 16              
1 24841U 97030F   24117.46639941  .00001241  00000+0  40540-3 0  9998
2 24841  86.4085  20.3059 0003007  41.7389 318.4038 14.37844656407368
IRIDIUM 911             
1 24842U 97030G   24116.80254341  .00001762  00000+0  48385-3 0  9996
2 24842  86.4511  19.7558 0016202  54.0101 306.2602 14.46461956414727
IRIDIUM 17              
1 24870U 97034B   24117.19402836  .00001483  00000+0  49469-3 0  9992
2 24870  86.3983  50.0203 0001239  42.5607 317.5686 14.36933647403682
IRIDIUM 920             
1 24871U 97034C   24117.19786928  .00001331  00000+0  41076-3 0  9998
2 24871  86.4020  30.2233 0012577  27.0937 333.0916 14.40656292406786
